[
    {
        "Altitude(m)": 557534.7334375042,
        "Argument of Periapsis(deg)": 0.019868973332140504,
        "Eccentricity": 0.0,
        "Inclination(deg)": 53.0,
        "Latitude(deg)": -15.534033873510644,
        "Longitude(deg)": -15.356742073369857,
        "Mean Anomaly(deg)": -160.6342213972672,
        "RAAN(deg)": 254.9704301055841,
        "Satellite Name": "Starlink Shell 1 1132",
        "Satellite Number": 1132,
        "Semi-Major Axis(m)": 6931778.249405717,
        "Time(s)": 570
    },
    {
        "Altitude(m)": 557677.5150268063,
        "Argument of Periapsis(deg)": 0.02021755181165174,
        "Eccentricity": 0.0,
        "Inclination(deg)": 53.0,
        "Latitude(deg)": -16.025786979576015,
        "Longitude(deg)": -14.991832547813763,
        "Mean Anomaly(deg)": -160.0073901937105,
        "RAAN(deg)": 254.9699113355066,
        "Satellite Name": "Starlink Shell 1 1132",
        "Satellite Number": 1132,
        "Semi-Major Axis(m)": 6931778.249405717,
        "Time(s)": 580
    },
    {
        "Altitude(m)": 557822.1757581373,
        "Argument of Periapsis(deg)": 0.020566130291162974,
        "Eccentricity": 0.0,
        "Inclination(deg)": 53.0,
        "Latitude(deg)": -16.51673112835725,
        "Longitude(deg)": -14.62494275042546,
        "Mean Anomaly(deg)": -159.3805589901538,
        "RAAN(deg)": 254.96939256542913,
        "Satellite Name": "Starlink Shell 1 1132",
        "Satellite Number": 1132,
        "Semi-Major Axis(m)": 6931778.249405717,
        "Time(s)": 590
    },
    {
        "Altitude(m)": 557968.6679311395,
        "Argument of Periapsis(deg)": 0.020914708770674213,
        "Eccentricity": 0.0,
        "Inclination(deg)": 53.0,
        "Latitude(deg)": -17.006836837903517,
        "Longitude(deg)": -14.256001723116928,
        "Mean Anomaly(deg)": -158.7537277865971,
        "RAAN(deg)": 254.96887379535164,
        "Satellite Name": "Starlink Shell 1 1132",
        "Satellite Number": 1132,
        "Semi-Major Axis(m)": 6931778.249405717,
        "Time(s)": 600
    },
    {
        "Altitude(m)": 558116.9428806431,
        "Argument of Periapsis(deg)": 0.021263287250185448,
        "Eccentricity": 0.0,
        "Inclination(deg)": 53.0,
        "Latitude(deg)": -17.496074176005582,
        "Longitude(deg)": -13.884937653787649,
        "Mean Anomaly(deg)": -158.12689658304038,
        "RAAN(deg)": 254.96835502527418,
        "Satellite Name": "Starlink Shell 1 1132",
        "Satellite Number": 1132,
        "Semi-Major Axis(m)": 6931778.249405717,
        "Time(s)": 610
    },
    {
        "Altitude(m)": 558266.9509980711,
        "Argument of Periapsis(deg)": 0.021611865729696686,
        "Eccentricity": 0.0,
        "Inclination(deg)": 53.0,
        "Latitude(deg)": -17.984412742048463,
        "Longitude(deg)": -13.51167734570742,
        "Mean Anomaly(deg)": -157.50006537948363,
        "RAAN(deg)": 254.96783625519672,
        "Satellite Name": "Starlink Shell 1 1132",
        "Satellite Number": 1132,
        "Semi-Major Axis(m)": 6931778.249405717,
        "Time(s)": 620
    },
    {
        "Altitude(m)": 558418.6417533486,
        "Argument of Periapsis(deg)": 0.02196044420920792,
        "Eccentricity": 0.0,
        "Inclination(deg)": 53.0,
        "Latitude(deg)": -18.471821648464967,
        "Longitude(deg)": -13.136147368038138,
        "Mean Anomaly(deg)": -156.87323417592694,
        "RAAN(deg)": 254.96731748511922,
        "Satellite Name": "Starlink Shell 1 1132",
        "Satellite Number": 1132,
        "Semi-Major Axis(m)": 6931778.249405717,
        "Time(s)": 630
    },
    {
        "Altitude(m)": 558571.9637172577,
        "Argument of Periapsis(deg)": 0.02230902268871916,
        "Eccentricity": 0.0,
        "Inclination(deg)": 53.0,
        "Latitude(deg)": -18.95826950177342,
        "Longitude(deg)": -12.758272685105492,
        "Mean Anomaly(deg)": -156.24640297237016,
        "RAAN(deg)": 254.96679871504173,
        "Satellite Name": "Starlink Shell 1 1132",
        "Satellite Number": 1132,
        "Semi-Major Axis(m)": 6931778.249405717,
        "Time(s)": 640
    },
    {
        "Altitude(m)": 558726.8645841957,
        "Argument of Periapsis(deg)": 0.022657601168230398,
        "Eccentricity": 0.0,
        "Inclination(deg)": 53.0,
        "Latitude(deg)": -19.44372438319458,
        "Longitude(deg)": -12.377977807379866,
        "Mean Anomaly(deg)": -155.61957176881353,
        "RAAN(deg)": 254.96627994496433,
        "Satellite Name": "Starlink Shell 1 1132",
        "Satellite Number": 1132,
        "Semi-Major Axis(m)": 6931778.249405717,
        "Time(s)": 650
    },
    {
        "Altitude(m)": 558883.2911953885,
        "Argument of Periapsis(deg)": 0.023006179647741636,
        "Eccentricity": 0.0,
        "Inclination(deg)": 53.0,
        "Latitude(deg)": -19.928153828832006,
        "Longitude(deg)": -11.995186261783761,
        "Mean Anomaly(deg)": -154.99274056525687,
        "RAAN(deg)": 254.96576117488684,
        "Satellite Name": "Starlink Shell 1 1132",
        "Satellite Number": 1132,
        "Semi-Major Axis(m)": 6931778.249405717,
        "Time(s)": 660
    },
    {
        "Altitude(m)": 559041.1895625042,
        "Argument of Periapsis(deg)": 0.023354758127252868,
        "Eccentricity": 0.0,
        "Inclination(deg)": 53.0,
        "Latitude(deg)": -20.411524809405247,
        "Longitude(deg)": -11.609820062352297,
        "Mean Anomaly(deg)": -154.36590936170012,
        "RAAN(deg)": 254.96524240480932,
        "Satellite Name": "Starlink Shell 1 1132",
        "Satellite Number": 1132,
        "Semi-Major Axis(m)": 6931778.249405717,
        "Time(s)": 670
    },
    {
        "Altitude(m)": 559200.5048916712,
        "Argument of Periapsis(deg)": 0.023703336606764106,
        "Eccentricity": 0.0,
        "Inclination(deg)": 53.0,
        "Latitude(deg)": -20.893803709530346,
        "Longitude(deg)": -11.221800694176824,
        "Mean Anomaly(deg)": -153.73907815814337,
        "RAAN(deg)": 254.96472363473188,
        "Satellite Name": "Starlink Shell 1 1132",
        "Satellite Number": 1132,
        "Semi-Major Axis(m)": 6931778.249405717,
        "Time(s)": 680
    },
    {
        "Altitude(m)": 559361.1816078805,
        "Argument of Periapsis(deg)": 0.024051915086275345,
        "Eccentricity": 0.0,
        "Inclination(deg)": 53.0,
        "Latitude(deg)": -21.37495630653148,
        "Longitude(deg)": -10.831048584948427,
        "Mean Anomaly(deg)": -153.11224695458668,
        "RAAN(deg)": 254.96420486465442,
        "Satellite Name": "Starlink Shell 1 1132",
        "Satellite Number": 1132,
        "Semi-Major Axis(m)": 6931778.249405717,
        "Time(s)": 690
    },
    {
        "Altitude(m)": 559523.1633797309,
        "Argument of Periapsis(deg)": 0.024400493565786583,
        "Eccentricity": 0.0,
        "Inclination(deg)": 53.0,
        "Latitude(deg)": -21.85494774877791,
        "Longitude(deg)": -10.437482577043125,
        "Mean Anomaly(deg)": -152.48541575102993,
        "RAAN(deg)": 254.96368609457693,
        "Satellite Name": "Starlink Shell 1 1132",
        "Satellite Number": 1132,
        "Semi-Major Axis(m)": 6931778.249405717,
        "Time(s)": 700
    },
    {
        "Altitude(m)": 559686.3931446017,
        "Argument of Periapsis(deg)": 0.024749072045297815,
        "Eccentricity": 0.0,
        "Inclination(deg)": 53.0,
        "Latitude(deg)": -22.333742533538153,
        "Longitude(deg)": -10.041020913100462,
        "Mean Anomaly(deg)": -151.85858454747319,
        "RAAN(deg)": 254.96316732449947,
        "Satellite Name": "Starlink Shell 1 1132",
        "Satellite Number": 1132,
        "Semi-Major Axis(m)": 6931778.249405717,
        "Time(s)": 710
    },
    {
        "Altitude(m)": 559850.8131341271,
        "Argument of Periapsis(deg)": 0.025097650524809053,
        "Eccentricity": 0.0,
        "Inclination(deg)": 53.0,
        "Latitude(deg)": -22.811304484341232,
        "Longitude(deg)": -9.641580709426618,
        "Mean Anomaly(deg)": -151.2317533439165,
        "RAAN(deg)": 254.96264855442197,
        "Satellite Name": "Starlink Shell 1 1132",
        "Satellite Number": 1132,
        "Semi-Major Axis(m)": 6931778.249405717,
        "Time(s)": 720
    },
    {
        "Altitude(m)": 560016.3648999869,
        "Argument of Periapsis(deg)": 0.02544622900432029,
        "Eccentricity": 0.0,
        "Inclination(deg)": 53.0,
        "Latitude(deg)": -23.2875967278377,
        "Longitude(deg)": -9.239077430187736,
        "Mean Anomaly(deg)": -150.60492214035983,
        "RAAN(deg)": 254.96212978434448,
        "Satellite Name": "Starlink Shell 1 1132",
        "Satellite Number": 1132,
        "Semi-Major Axis(m)": 6931778.249405717,
        "Time(s)": 730
    },
    {
        "Altitude(m)": 560182.9893400784,
        "Argument of Periapsis(deg)": 0.02579480748383153,
        "Eccentricity": 0.0,
        "Inclination(deg)": 53.0,
        "Latitude(deg)": -23.762581670158344,
        "Longitude(deg)": -8.833425875362721,
        "Mean Anomaly(deg)": -149.978090936803,
        "RAAN(deg)": 254.96161101426705,
        "Satellite Name": "Starlink Shell 1 1132",
        "Satellite Number": 1132,
        "Semi-Major Axis(m)": 6931778.249405717,
        "Time(s)": 740
    },
    {
        "Altitude(m)": 560350.6267249605,
        "Argument of Periapsis(deg)": 0.026143385963342765,
        "Eccentricity": 0.0,
        "Inclination(deg)": 53.0,
        "Latitude(deg)": -24.236220972758833,
        "Longitude(deg)": -8.424539656813744,
        "Mean Anomaly(deg)": -149.35125973324634,
        "RAAN(deg)": 254.96109224418956,
        "Satellite Name": "Starlink Shell 1 1132",
        "Satellite Number": 1132,
        "Semi-Major Axis(m)": 6931778.249405717,
        "Time(s)": 750
    }
]